SL-8 R/B                
1 15483U 85006B   26168.85167281  .00000168  00000+0  64421-4 0  9996
2 15483  74.0459  76.8413 0018897 323.8477 103.1314 14.37835285168428
SL-12 R/B(2)            
1 15772U 85042D   26168.66480787  .00000092  00000+0  62625-4 0  9995
2 15772  71.1077 236.5073 0036355 327.0243 146.4490 14.22006065128607
SL-14 R/B               
1 15945U 85069B   26168.84232777  .00000361  00000+0  37915-4 0  9993
2 15945  82.5271 290.7497 0017841 216.8586 143.1406 14.86516001187711
SL-16 R/B               
1 16182U 85097B   26168.77106098 -.00000077  00000+0 -14376-4 0  9998
2 16182  71.0033 289.8484 0005394 110.0062 357.9401 14.16610066101404
SL-14 R/B               
1 16496U 86006B   26168.45530609  .00000458  00000+0  46032-4 0  9996
2 16496  82.5262 165.8610 0074939 302.5715  56.8280 14.86945864164033
COSMOS 1743             
1 16719U 86034A   26168.84921413  .00039972  00000+0  37505-3 0  9992
2 16719  82.5282 328.0276 0003950 267.9983  92.0825 15.66992078195893
SL-14 R/B               
1 16792U 86046B   26168.89375080  .00000327  00000+0  34823-4 0  9997
2 16792  82.4817 345.5076 0021612 255.9249 103.9565 14.85671463141285
SL-14 R/B               
1 16882U 86055B   26168.68373159  .00000296  00000+0  31183-4 0  9990
2 16882  82.5204  32.6661 0019024   6.0559  53.9290 14.85723376134218
AJISAI (EGS)            
1 16908U 86061A   26168.94078781 -.00000118  00000+0 -14676-3 0  9990
2 16908  50.0066 145.0774 0011209 182.4949 257.0319 12.44516784480484
SL-14 R/B               
1 17567U 87024B   26168.95808394  .00000299  00000+0  31242-4 0  9991
2 17567  82.5279 358.5259 0016772 290.4665  69.4751 14.86213646103022
COSMOS 1833             
1 17589U 87027A   26168.88698414  .00000324  00000+0  19885-3 0  9997
2 17589  70.9180 115.3971 0022819  53.9439 306.3792 14.13050574 24476
SL-16 R/B               
1 17590U 87027B   26168.92196129 -.00000191  00000+0 -71042-4 0  9998
2 17590  71.0033  65.2804 0006546 311.3770  48.6791 14.17171606 29545
SL-14 R/B               
1 17912U 87038B   26168.60044168  .00000259  00000+0  27099-4 0  9994
2 17912  82.5008 202.6830 0018935 189.7934 170.2916 14.85445370 94069
COSMOS 1844             
1 17973U 87041A   26168.46068862 -.00000156  00000+0 -55837-4 0  9995
2 17973  70.8968 183.7304 0032887 235.1707 124.6321 14.14567818 17693
SL-14 R/B               
1 18153U 87055B   26168.76190392  .00000310  00000+0  32773-4 0  9992
2 18153  82.4995 254.6873 0021654  45.8715 314.4278 14.85711401 84799
COSMOS 1867             
1 18187U 87060A   26168.83183598 -.00000059  00000+0  15321-4 0  9994
2 18187  65.0116  26.2533 0016549 282.1549  77.7682 14.31515790 34272
SL-14 R/B               
1 18749U 88001B   26168.89865682  .00000339  00000+0  36352-4 0  9998
2 18749  82.5132 101.1043 0016428 266.9813  92.9523 14.85610084 56905
COSMOS 1933             
1 18958U 88020A   26168.43284332  .00003261  00000+0  15573-3 0  9996
2 18958  82.5121 152.1919 0003593 184.2553 175.8651 15.18714160 65365
SL-3 R/B                
1 19046U 88032B   26168.90107252  .00003281  00000+0  15083-3 0  9993
2 19046  97.5256 151.9410 0023840 242.3375 117.5440 15.20844814 67338
SL-16 R/B               
1 19120U 88039B   26168.54363177  .00000036  00000+0  39576-4 0  9992
2 19120  71.0137 217.4045 0022240 192.6408 167.4163 14.19629596972555
COSMOS 1953             
1 19210U 88050A   26168.73817086  .00005959  00000+0  20377-3 0  9996
2 19210  82.5076  57.4792 0012179 124.5915 235.6476 15.29985621 53070
SL-8 R/B                
1 19257U 88053B   26168.78031767  .00000138  00000+0  53193-4 0  9996
2 19257  74.0481 287.9638 0019168  83.0871  29.7664 14.38967585990991
COSMOS 1975             
1 19573U 88093A   26168.61235036  .00005359  00000+0  18695-3 0  9995
2 19573  82.5186  17.2741 0011370 170.0816 190.0651 15.29329596 34677
SL-14 R/B               
1 19574U 88093B   26168.88898352  .00000366  00000+0  39183-4 0  9990
2 19574  82.5312 307.9857 0022066  68.2892  47.0899 14.85742351 15899
SL-16 R/B               
1 19650U 88102B   26168.78222826 -.00000128  00000+0 -40504-4 0  9999
2 19650  71.0000 300.8867 0015760 224.5291 135.4567 14.16164154941061
INTERCOSMOS 24          
1 20261U 89080A   26168.73131824  .00000748  00000+0  21158-3 0  9996
2 20261  82.6065  39.2911 1188367  60.6439 310.8059 12.59662854679395
SL-14 R/B               
1 20262U 89080C   26168.88227874  .00000229  00000+0  68446-4 0  9990
2 20262  82.5933 108.8612 1228723 315.8110  35.0939 12.50571108672671
DELTA 1 R/B             
1 20323U 89089B   26168.49517522  .00000230  00000+0  65327-4 0  9993
2 20323  97.0635   0.0041 0069273 166.0115 194.3023 14.50731484910205
ARIANE 40 R/B           
1 20443U 90005H   26168.73957590  .00000196  00000+0  75660-4 0  9998
2 20443  98.2959 226.3385 0008845 262.3989  97.6195 14.39927722907201
DELTA 2 R/B(1)          
1 20453U 90008B   26168.57228831  .00074176  00000+0  54779-3 0  9999
2 20453  35.5987 233.0827 0064898 118.2484 242.4826 15.68875859941768
